{
  "type": "FeatureCollection",
  "features": [
    {
      "type": "Feature",
      "properties": {
        "norad_id": 65731,
        "name": "1998-067XK",
        "group": "stations",
        "lat": -46.08758510396039,
        "lon": -58.89406990140576,
        "alt_km": 367.37049126066813,
        "timestamp": "2025-12-26T19:22:37.641455+00:00",
        "meta_object_name": "1998-067XK",
        "meta_object_id": "1998-067XK",
        "meta_epoch": "2025-12-26T10:41:00.043296",
        "meta_mean_motion": 15.68417906,
        "meta_eccentricity": 0.00050098,
        "meta_inclination": 51.6285,
        "meta_ra_of_asc_node": 67.5635,
        "meta_arg_of_pericenter": 330.6256,
        "meta_mean_anomaly": 29.4459,
        "meta_ephemeris_type": 0,
        "meta_classification_type": "U",
        "meta_norad_cat_id": 65731,
        "meta_element_set_no": 999,
        "meta_rev_at_epoch": 1529,
        "meta_bstar": 0.00085869959,
        "meta_mean_motion_dot": 0.00099452,
        "meta_mean_motion_ddot": 0,
        "tle_line1": "1 65731U 98067XK  25360.44513939  .00099452  00000+0  85870-3 0  9995",
        "tle_line2": "2 65731  51.6285  67.5635 0005009 330.6256  29.4459 15.68417906 15299"
      },
      "geometry": {
        "type": "Point",
        "coordinates": [
          -58.89406990140576,
          -46.08758510396039
        ]
      }
    },
    {
      "type": "Feature",
      "properties": {
        "norad_id": 65732,
        "name": "RSP-03",
        "group": "stations",
        "lat": 21.74246289307001,
        "lon": 83.07938417603835,
        "alt_km": 347.08901082680677,
        "timestamp": "2025-12-26T19:22:37.641468+00:00",
        "meta_object_name": "RSP-03",
        "meta_object_id": "1998-067XL",
        "meta_epoch": "2025-12-26T11:37:50.674656",
        "meta_mean_motion": 15.72242351,
        "meta_eccentricity": 0.00060633,
        "meta_inclination": 51.6261,
        "meta_ra_of_asc_node": 66.3111,
        "meta_arg_of_pericenter": 338.1349,
        "meta_mean_anomaly": 21.939,
        "meta_ephemeris_type": 0,
        "meta_classification_type": "U",
        "meta_norad_cat_id": 65732,
        "meta_element_set_no": 999,
        "meta_rev_at_epoch": 1532,
        "meta_bstar": 0.0010599003,
        "meta_mean_motion_dot": 0.00145049,
        "meta_mean_motion_ddot": 0,
        "tle_line1": "1 65732U 98067XL  25360.48461429  .00145049  00000+0  10599-2 0  9995",
        "tle_line2": "2 65732  51.6261  66.3111 0006063 338.1349  21.9390 15.72242351 15327"
      },
      "geometry": {
        "type": "Point",
        "coordinates": [
          83.07938417603835,
          21.74246289307001
        ]
      }
    },
    {
      "type": "Feature",
      "properties": {
        "norad_id": 65733,
        "name": "GHS-01",
        "group": "stations",
        "lat": -24.084353985278206,
        "lon": 41.77822687656394,
        "alt_km": 324.36956642015684,
        "timestamp": "2025-12-26T19:22:37.641479+00:00",
        "meta_object_name": "GHS-01",
        "meta_object_id": "1998-067XM",
        "meta_epoch": "2025-12-25T11:39:15.872832",
        "meta_mean_motion": 15.80737686,
        "meta_eccentricity": 0.0009282,
        "meta_inclination": 51.6282,
        "meta_ra_of_asc_node": 69.3856,
        "meta_arg_of_pericenter": 357.4612,
        "meta_mean_anomaly": 2.6342,
        "meta_ephemeris_type": 0,
        "meta_classification_type": "U",
        "meta_norad_cat_id": 65733,
        "meta_element_set_no": 999,
        "meta_rev_at_epoch": 1519,
        "meta_bstar": 0.0014102,
        "meta_mean_motion_dot": 0.0028642,
        "meta_mean_motion_ddot": 0,
        "tle_line1": "1 65733U 98067XM  25359.48560038  .00286420  00000+0  14102-2 0  9993",
        "tle_line2": "2 65733  51.6282  69.3856 0009282 357.4612   2.6342 15.80737686 15190"
      },
      "geometry": {
        "type": "Point",
        "coordinates": [
          41.77822687656394,
          -24.084353985278206
        ]
      }
    },
    {
      "type": "Feature",
      "properties": {
        "norad_id": 65941,
        "name": "YOTSUBA-KULOVER",
        "group": "stations",
        "lat": 21.89921753279715,
        "lon": 87.74623605869401,
        "alt_km": 379.6208571706002,
        "timestamp": "2025-12-26T19:22:37.641490+00:00",
        "meta_object_name": "YOTSUBA-KULOVER",
        "meta_object_id": "1998-067XN",
        "meta_epoch": "2025-12-26T14:38:51.631584",
        "meta_mean_motion": 15.61332207,
        "meta_eccentricity": 0.00025713,
        "meta_inclination": 51.6289,
        "meta_ra_of_asc_node": 70.1673,
        "meta_arg_of_pericenter": 5.6559,
        "meta_mean_anomaly": 354.4463,
        "meta_ephemeris_type": 0,
        "meta_classification_type": "U",
        "meta_norad_cat_id": 65941,
        "meta_element_set_no": 999,
        "meta_rev_at_epoch": 1202,
        "meta_bstar": 0.00084261791,
        "meta_mean_motion_dot": 0.0007325,
        "meta_mean_motion_ddot": 0,
        "tle_line1": "1 65941U 98067XN  25360.61031981  .00073250  00000+0  84262-3 0  9991",
        "tle_line2": "2 65941  51.6289  70.1673 0002571   5.6559 354.4463 15.61332207 12021"
      },
      "geometry": {
        "type": "Point",
        "coordinates": [
          87.74623605869401,
          21.89921753279715
        ]
      }
    },
    {
      "type": "Feature",
      "properties": {
        "norad_id": 65942,
        "name": "BOTAN",
        "group": "stations",
        "lat": -13.764783896035167,
        "lon": -100.73833529695938,
        "alt_km": 375.10935531020095,
        "timestamp": "2025-12-26T19:22:37.641503+00:00",
        "meta_object_name": "BOTAN",
        "meta_object_id": "1998-067XP",
        "meta_epoch": "2025-12-26T10:52:42.060576",
        "meta_mean_motion": 15.65808737,
        "meta_eccentricity": 0.00035646,
        "meta_inclination": 51.6278,
        "meta_ra_of_asc_node": 69.8667,
        "meta_arg_of_pericenter": 346.4862,
        "meta_mean_anomaly": 13.6037,
        "meta_ephemeris_type": 0,
        "meta_classification_type": "U",
        "meta_norad_cat_id": 65942,
        "meta_element_set_no": 999,
        "meta_rev_at_epoch": 1201,
        "meta_bstar": 0.0010505339,
        "meta_mean_motion_dot": 0.0010964,
        "meta_mean_motion_ddot": 0,
        "tle_line1": "1 65942U 98067XP  25360.45326459  .00109640  00000+0  10505-2 0  9992",
        "tle_line2": "2 65942  51.6278  69.8667 0003564 346.4862  13.6037 15.65808737 12014"
      },
      "geometry": {
        "type": "Point",
        "coordinates": [
          -100.73833529695938,
          -13.764783896035167
        ]
      }
    },
    {
      "type": "Feature",
      "properties": {
        "norad_id": 65943,
        "name": "E-KAGAKU-1",
        "group": "stations",
        "lat": 21.5775624265771,
        "lon": 87.44002447568924,
        "alt_km": 380.66029063819497,
        "timestamp": "2025-12-26T19:22:37.641513+00:00",
        "meta_object_name": "E-KAGAKU-1",
        "meta_object_id": "1998-067XQ",
        "meta_epoch": "2025-12-26T11:34:38.215200",
        "meta_mean_motion": 15.61326456,
        "meta_eccentricity": 0.00014737,
        "meta_inclination": 51.6304,
        "meta_ra_of_asc_node": 70.8185,
        "meta_arg_of_pericenter": 333.5123,
        "meta_mean_anomaly": 26.5795,
        "meta_ephemeris_type": 0,
        "meta_classification_type": "U",
        "meta_norad_cat_id": 65943,
        "meta_element_set_no": 999,
        "meta_rev_at_epoch": 1200,
        "meta_bstar": 0.0007949653,
        "meta_mean_motion_dot": 0.00069021,
        "meta_mean_motion_ddot": 0,
        "tle_line1": "1 65943U 98067XQ  25360.48238675  .00069021  00000+0  79497-3 0  9992",
        "tle_line2": "2 65943  51.6304  70.8185 0001473 333.5123  26.5795 15.61326456 12008"
      },
      "geometry": {
        "type": "Point",
        "coordinates": [
          87.44002447568924,
          21.5775624265771
        ]
      }
    },
    {
      "type": "Feature",
      "properties": {
        "norad_id": 66052,
        "name": "HRC MONOBLOCK CAMERA",
        "group": "stations",
        "lat": 50.48124923099637,
        "lon": 145.15478644177918,
        "alt_km": 396.14647702528237,
        "timestamp": "2025-12-26T19:22:37.641524+00:00",
        "meta_object_name": "HRC MONOBLOCK CAMERA",
        "meta_object_id": "1998-067XR",
        "meta_epoch": "2025-12-26T14:24:31.277664",
        "meta_mean_motion": 15.55102813,
        "meta_eccentricity": 0.00019152,
        "meta_inclination": 51.6303,
        "meta_ra_of_asc_node": 72.3477,
        "meta_arg_of_pericenter": 253.6034,
        "meta_mean_anomaly": 106.4747,
        "meta_ephemeris_type": 0,
        "meta_classification_type": "U",
        "meta_norad_cat_id": 66052,
        "meta_element_set_no": 999,
        "meta_rev_at_epoch": 1099,
        "meta_bstar": 0.00053583811,
        "meta_mean_motion_dot": 0.00036444,
        "meta_mean_motion_ddot": 0,
        "tle_line1": "1 66052U 98067XR  25360.60036201  .00036444  00000+0  53584-3 0  9991",
        "tle_line2": "2 66052  51.6303  72.3477 0001915 253.6034 106.4747 15.55102813 10997"
      },
      "geometry": {
        "type": "Point",
        "coordinates": [
          145.15478644177918,
          50.48124923099637
        ]
      }
    }
  ]
}